[{"OBJECT_NAME":"STARLINK-3711","OBJECT_ID":"2022-029AV","EPOCH":"2026-03-09T23:28:15.759552","MEAN_MOTION":15.14150134,"ECCENTRICITY":6.042e-5,"INCLINATION":53.2142,"RA_OF_ASC_NODE":66.1332,"ARG_OF_PERICENTER":49.6209,"MEAN_ANOMALY":310.4839,"EPHEMERIS_TYPE":0,"CLASSIFICATION_TYPE":"U","NORAD_CAT_ID":52131,"ELEMENT_SET_NO":999,"REV_AT_EPOCH":22100,"BSTAR":0.0018381126,"MEAN_MOTION_DOT":0.00033758,"MEAN_MOTION_DDOT":0},{"OBJECT_NAME":"OBJECT C","OBJECT_ID":"2025-180C","EPOCH":"2026-03-09T23:47:54.737664","MEAN_MOTION":15.14468548,"ECCENTRICITY":0.00128699,"INCLINATION":97.5082,"RA_OF_ASC_NODE":197.2463,"ARG_OF_PERICENTER":306.8815,"MEAN_ANOMALY":53.1236,"EPHEMERIS_TYPE":0,"CLASSIFICATION_TYPE":"U","NORAD_CAT_ID":65261,"ELEMENT_SET_NO":999,"REV_AT_EPOCH":3064,"BSTAR":0.00036364309,"MEAN_MOTION_DOT":6.637e-5,"MEAN_MOTION_DDOT":0}]
